YAOGAN 10               
1 36834U 10038A   24067.14931294  .00001164  00000+0  15151-3 0  9995
2 36834  97.9564  84.8458 0001266  88.7748 313.0747 14.82523560733880
AEHF-1 (USA 214)        
1 36868U 10039A   24066.29177106  .00000023  00000+0  00000+0 0  9998
2 36868   6.1187  78.6373 0001211 340.9388 213.9803  1.00268813 45307
TIANHUI 1               
1 36985U 10040A   24066.66902467  .00022091  00000+0  51808-3 0  9992
2 36985  97.5857 312.5478 0019203 232.8537 127.0956 15.41890994753341
COSMOS 2467             
1 37152U 10043A   24066.55504012  .00000061  00000+0  37012-3 0  9998
2 37152  82.4552 225.8284 0001894 147.3239 279.2753 12.42941247612064
STRELA 3                
1 37153U 10043B   24066.84795923  .00000043  00000+0  24914-3 0  9991
2 37153  82.4539 236.8622 0008301  92.7982 267.4047 12.40763951611219
COSMOS 2468             
1 37154U 10043C   24066.49997131  .00000051  00000+0  29749-3 0  9998
2 37154  82.4593 223.5663 0013607 325.9427 101.7360 12.43704204612362
YAOGAN 11               
1 37165U 10047A   24067.03582056  .00001366  00000+0  19255-3 0  9992
2 37165  98.4281 240.9301 0037542  28.9326 331.3954 14.78592982724956
ZHEDA PIXING 1B         
1 37166U 10047B   24067.16195195  .00002691  00000+0  32299-3 0  9996
2 37166  97.8435  37.2636 0023266 134.2504 226.0625 14.84663351727006
ZHEDA PIXING 1C         
1 37167U 10047C   24067.17072505  .00002778  00000+0  33462-3 0  9996
2 37167  97.8761  37.6709 0022787 137.4682 222.8303 14.84502895726958
SBSS (USA 216)          
1 37168U 10048A   24067.19063791  .00001164  00000+0  14886-3 0  9994
2 37168  97.8697 286.2014 0001330 115.5551 358.3390 14.83228319726902
SHIJIAN-6 04A (SJ-6 04A)
1 37179U 10051A   24067.17761540  .00006136  00000+0  47377-3 0  9990
2 37179  97.8358  59.5431 0026594 180.4998 179.6204 15.01646628731460
SHIJIAN-6 04B (SJ-6 04B)
1 37180U 10051B   24067.15165567  .00001332  00000+0  12490-3 0  9998
2 37180  97.8321  56.5212 0010521 204.1522 155.9207 14.95697462731156
XM-5                    
1 37185U 10053A   24066.62619769 -.00000026  00000+0  00000+0 0  9994
2 37185   0.0437 276.6476 0000314 286.9338  71.4573  1.00271248 49099
GLOBALSTAR M079         
1 37188U 10054A   24066.36213491 -.00000099  00000+0  24261-4 0  9991
2 37188  52.0025 123.9210 0000449  93.5921 347.1730 12.62267128617373
GLOBALSTAR M074         
1 37189U 10054B   24066.56549130 -.00000088  00000+0  88924-4 0  9990
2 37189  52.0005 122.6978 0000571 121.0924  43.7473 12.62265993618007
GLOBALSTAR M076         
1 37190U 10054C   24066.59203285 -.00000094  00000+0  54083-4 0  9999
2 37190  52.0018 122.7466 0000905  87.0170  77.8582 12.62275180618087
GLOBALSTAR M077         
1 37191U 10054D   24066.49975007 -.00000088  00000+0  89275-4 0  9991
2 37191  52.0064  79.7472 0000456 113.0046  52.1869 12.62270196618086
GLOBALSTAR M075         
1 37192U 10054E   24067.20459073 -.00000101  00000+0  14776-4 0  9992
2 37192  51.9938 163.3983 0000562 106.2605 263.4888 12.62271283617406
GLOBALSTAR M073         
1 37193U 10054F   24066.98189161 -.00000084  00000+0  11078-3 0  9996
2 37193  52.0054  77.5348 0000436  91.2714 347.5721 12.62262400618887
BSAT-3B                 
1 37207U 10056B   24067.10743814 -.00000355  00000+0  00000+0 0  9990
2 37207   0.0800 297.1585 0004664  45.4755 331.1752  1.00269035 48938
BEIDOU-2 G4             
1 37210U 10057A   24066.89567376 -.00000116  00000+0  00000+0 0  9992
2 37210   1.5994  67.0780 0005303 205.6543  14.8248  1.00270087 48933
FENGYUN 3B              
1 37214U 10059A   24067.20809355  .00000169  00000+0  11198-3 0  9991
2 37214  99.0670  93.8255 0022509  23.3847  49.7267 14.14453135689837
COSMO-SKYMED 4          
1 37216U 10060A   24067.10648631  .00000918  00000+0  12184-3 0  9990
2 37216  97.8847 251.7486 0001391  83.4823 276.6548 14.82161571721373
SKYTERRA 1              
1 37218U 10061A   24066.62889539 -.00000119  00000+0  00000+0 0  9997
2 37218   3.4217  47.0509 0002187 320.8660 282.0437  1.00271459 48870
HYLAS 1                 
1 37237U 10065A   24066.96242009 -.00000340  00000+0  00000+0 0  9990
2 37237   3.5125  83.0969 0002021  88.6520 115.5885  0.99961668 48660
INTELSAT 17 (IS-17)     
1 37238U 10065B   24066.16854917 -.00000003  00000+0  00000+0 0  9996
2 37238   0.0020 179.4338 0002582 179.4251 292.1721  1.00271476 44884
BEIDOU-2 IGSO-2         
1 37256U 10068A   24066.52721036 -.00000149  00000+0  00000+0 0  9995
2 37256  49.0670 282.0666 0031297 211.0156 329.3410  1.00282982 48432
EUTELSAT KA-SAT 9A      
1 37258U 10069A   24066.86565097  .00000058  00000+0  00000+0 0  9996
2 37258   0.0576 286.6073 0000976  21.6258 177.4652  1.00273864 48479
HISPASAT 30W-5          
1 37264U 10070A   24066.42826567 -.00000218  00000+0  00000+0 0  9998
2 37264   0.0133 154.3352 0003094 221.3112 273.1640  1.00272439 44832
KOREASAT 6              
1 37265U 10070B   24067.10743814 -.00000367  00000+0  00000+0 0  9993
2 37265   0.0224 219.5469 0001690 132.7362 327.6885  1.00270330 48343
BEIDOU-2 IGSO-3         
1 37384U 11013A   24066.38384097 -.00000146  00000+0  00000+0 0  9991
2 37384  61.2085  48.1018 0026861 183.7988 179.3223  1.00284366 47310
RESOURCESAT-2           
1 37387U 11015A   24067.18346167  .00000234  00000+0  12612-3 0  9994
2 37387  98.5883 135.7385 0005223  61.2721 298.8981 14.21686966668491
YOUTHSAT                
1 37388U 11015B   24066.98756198  .00000363  00000+0  17321-3 0  9996
2 37388  98.3000  72.1125 0013425 266.3150 156.7842 14.24800138669620
X-SAT                   
1 37389U 11015C   24067.15125012  .00000244  00000+0  12249-3 0  9994
2 37389  98.2963  76.7460 0012913 266.5471  93.4232 14.24637823669707
INTELSAT NEW DAWN       
1 37392U 11016A   24067.08513392  .00000150  00000+0  00000+0 0  9997
2 37392   0.0294 245.3310 0000971 128.0564 215.3150  1.00270930 47170
YAHSAT 1A               
1 37393U 11016B   24067.08904993  .00000096  00000+0  00000+0 0  9998
2 37393   0.0133 136.9280 0002489 220.9056 251.9858  1.00269073 47210
SBIRS GEO-1 (USA 230)   
1 37481U 11019A   24066.85935869 -.00000007  00000+0  00000+0 0  9992
2 37481   2.8019  46.7698 0002343 294.3512 198.9929  1.00272017 46998
TELSTAR 14R             
1 37602U 11021A   24066.77970556 -.00000284  00000+0  00000+0 0  9990
2 37602   0.0363 272.3830 0002945  90.2414  20.0384  1.00270715 47446
GSAT-8                  
1 37605U 11022A   24067.08957207  .00000080  00000+0  00000+0 0  9990
2 37605   0.0134 130.0146 0006804 165.0564 317.5287  1.00269782 46896
ST-2                    
1 37606U 11022B   24067.12323802 -.00000216  00000+0  00000+0 0  9996
2 37606   0.0214 235.3412 0001867 145.3915 276.9469  1.00268589 46902
CHINASAT 10 (ZX 10)     
1 37677U 11026A   24067.10743814 -.00000357  00000+0  00000+0 0  9991
2 37677   0.0564 283.4361 0001180 283.4746 107.5330  1.00275626 46624
SJ-11-03                
1 37730U 11030A   24067.20409059  .00001130  00000+0  23401-3 0  9990
2 37730  97.8343  56.9464 0009534 137.2652 233.9681 14.62016178675496
GLOBALSTAR M083         
1 37739U 11033A   24067.13905580 -.00000095  00000+0  51592-4 0  9997
2 37739  51.9881  26.4265 0000190  62.1984 310.9272 12.62266149588237
GLOBALSTAR M088         
1 37740U 11033B   24066.55668316 -.00000061  00000+0  23695-3 0  9992
2 37740  51.9733 294.0887 0000629  68.0008 297.9943 12.62265661583341
GLOBALSTAR M091         
1 37741U 11033C   24066.80891103 -.00000077  00000+0  15031-3 0  9995
2 37741  51.9976 256.0374 0000621  74.0283 298.7391 12.62272088584421
GLOBALSTAR M085         
1 37742U 11033D   24067.14756556 -.00000104  00000+0 -21155-5 0  9994
2 37742  51.9851 206.4577 0000575  95.7923  75.9255 12.62268358585203
GLOBALSTAR M081         
1 37743U 11033E   24067.17377544 -.00000108  00000+0 -22975-4 0  9998
2 37743  51.9941 208.8759 0000684  79.2331  92.1831 12.62270394585241
GLOBALSTAR M089         
1 37744U 11033F   24066.56547642 -.00000119  00000+0 -83244-4 0  9997
2 37744  51.9922 165.0461 0001047  96.3717   8.4473 12.62271952585633
SES-3                   
1 37748U 11035A   24066.64196454 -.00000105  00000+0  00000+0 0  9991
2 37748   0.0539 305.0996 0002912  52.4522 295.3924  1.00271330 46342
KAZSAT-2                
1 37749U 11035B   24066.80118976 -.00000201  00000+0  00000+0 0  9990
2 37749   0.0230 148.8027 0000904  20.8876  10.2781  1.00269111 46225
BEIDOU-2 IGSO-4         
1 37763U 11038A   24065.68399095 -.00000090  00000+0  00000+0 0  9993
2 37763  54.5541 173.0944 0120485 227.3268 105.5548  1.00280711 46288
SJ-11-02                
1 37765U 11039A   24067.15902873  .00000752  00000+0  15754-3 0  9994
2 37765  98.3759 298.8494 0010703 351.0128 122.3143 14.62635105672336
ASTRA 1N                
1 37775U 11041A   24067.08243622  .00000114  00000+0  00000+0 0  9996
2 37775   0.0595  12.3513 0005232   2.9423 198.8375  1.00271105 46050
BSAT-3C (JCSAT-110R)    
1 37776U 11041B   24067.10743814 -.00000356  00000+0  00000+0 0  9997
2 37776   0.0584 299.3864 0000254 165.9913 208.5308  1.00271616 46173
PAKSAT-1R               
1 37779U 11042A   24067.08617819  .00000149  00000+0  00000+0 0  9992
2 37779   0.0241  52.1735 0003234   2.8098 179.3016  1.00271310 45937
HAIYANG-2A              
1 37781U 11043A   24067.02167170  .00000028  00000+0  70370-4 0  9998
2 37781  99.3271  72.1789 0001050  49.1165 311.0077 13.78770566632252
NIGERIASAT-2            
1 37789U 11044B   24067.16730649  .00000595  00000+0  10910-3 0  9991
2 37789  97.8043  66.4004 0029457 262.9500 164.6050 14.68902677669865
NIGERIASAT-X            
1 37790U 11044C   24066.79713840  .00000579  00000+0  13099-3 0  9998
2 37790  97.8308  85.4867 0013946  78.8506 281.4262 14.59431595668885
RASAT                   
1 37791U 11044D   24067.15833537  .00000876  00000+0  16795-3 0  9992
2 37791  98.0770 160.2747 0020382 308.5520 110.7724 14.66081589671199
